KUIPER-00053            
1 64513U 25134P   25363.74771764  .00004601  00000+0  63223-3 0  9995
2 64513  51.8998 172.3714 0001331 136.1699 223.9369 14.79929386 29855
KUIPER-00054            
1 64514U 25134Q   25363.75231766  .00004436  00000+0  60960-3 0  9991
2 64514  51.8969 167.3311 0005973  82.4186 277.7455 14.79997283 29923
KUIPER-00055            
1 64515U 25134R   25363.72068296  .00020128  00000+0  98279-3 0  9995
2 64515  51.8903 148.8169 0002303 252.9680 107.1046 15.18247562 30188
KUIPER-00056            
1 64516U 25134S   25363.74601109  .00004619  00000+0  63389-3 0  9995
2 64516  51.9026 173.4170 0002695  95.6628 264.4642 14.79974331 29847
KUIPER-00057            
1 64517U 25134T   25363.80547532  .00023363  00000+0  30808-2 0  9998
2 64517  51.8983 180.6365 0009454  50.4550 309.7246 14.79937243 29741
KUIPER-00058            
1 64518U 25134U   25363.74492640  .00004412  00000+0  60750-3 0  9995
2 64518  51.8982 174.8240 0004887  96.0728 264.0792 14.79922102 29822
KUIPER-00059            
1 64519U 25134V   25363.75037428  .00004671  00000+0  64135-3 0  9994
2 64519  51.8990 169.8571 0002016 235.3278 124.7495 14.79929859 29898
KUIPER-00060            
1 64520U 25134W   25363.74871772  .00004540  00000+0  62439-3 0  9993
2 64520  51.9005 170.9047 0002528 132.0935 228.0243 14.79918527 29866
