<?xml version="1.0" encoding="UTF-8"?>
<ndm xmlns:xsi="http://www.w3.org/2001/XMLSchema-instance" xsi:noNamespaceSchemaLocation="https://sanaregistry.org/r/ndmxml_unqualified/ndmxml-2.0.0-master-2.0.xsd">
<omm id="CCSDS_OMM_VERS" version="2.0">
<header><CREATION_DATE/><ORIGINATOR/></header><body><segment><metadata><OBJECT_NAME>KUIPER-00053</OBJECT_NAME><OBJECT_ID>2025-134P</OBJECT_ID><CENTER_NAME>EARTH</CENTER_NAME><REF_FRAME>TEME</REF_FRAME><TIME_SYSTEM>UTC</TIME_SYSTEM><MEAN_ELEMENT_THEORY>SGP4</MEAN_ELEMENT_THEORY></metadata><data><meanElements><EPOCH>2025-12-29T17:56:42.804096</EPOCH><MEAN_MOTION>14.79929386</MEAN_MOTION><ECCENTRICITY>.0001331</ECCENTRICITY><INCLINATION>51.8998</INCLINATION><RA_OF_ASC_NODE>172.3714</RA_OF_ASC_NODE><ARG_OF_PERICENTER>136.1699</ARG_OF_PERICENTER><MEAN_ANOMALY>223.9369</MEAN_ANOMALY></meanElements><tleParameters><EPHEMERIS_TYPE>0</EPHEMERIS_TYPE><CLASSIFICATION_TYPE>U</CLASSIFICATION_TYPE><NORAD_CAT_ID>64513</NORAD_CAT_ID><ELEMENT_SET_NO>999</ELEMENT_SET_NO><REV_AT_EPOCH>2985</REV_AT_EPOCH><BSTAR>.63223E-3</BSTAR><MEAN_MOTION_DOT>.4601E-4</MEAN_MOTION_DOT><MEAN_MOTION_DDOT>0</MEAN_MOTION_DDOT></tleParameters></data></segment></body></omm>
<omm id="CCSDS_OMM_VERS" version="2.0">
<header><CREATION_DATE/><ORIGINATOR/></header><body><segment><metadata><OBJECT_NAME>KUIPER-00054</OBJECT_NAME><OBJECT_ID>2025-134Q</OBJECT_ID><CENTER_NAME>EARTH</CENTER_NAME><REF_FRAME>TEME</REF_FRAME><TIME_SYSTEM>UTC</TIME_SYSTEM><MEAN_ELEMENT_THEORY>SGP4</MEAN_ELEMENT_THEORY></metadata><data><meanElements><EPOCH>2025-12-29T18:03:20.245824</EPOCH><MEAN_MOTION>14.79997283</MEAN_MOTION><ECCENTRICITY>.0005973</ECCENTRICITY><INCLINATION>51.8969</INCLINATION><RA_OF_ASC_NODE>167.3311</RA_OF_ASC_NODE><ARG_OF_PERICENTER>82.4186</ARG_OF_PERICENTER><MEAN_ANOMALY>277.7455</MEAN_ANOMALY></meanElements><tleParameters><EPHEMERIS_TYPE>0</EPHEMERIS_TYPE><CLASSIFICATION_TYPE>U</CLASSIFICATION_TYPE><NORAD_CAT_ID>64514</NORAD_CAT_ID><ELEMENT_SET_NO>999</ELEMENT_SET_NO><REV_AT_EPOCH>2992</REV_AT_EPOCH><BSTAR>.6096E-3</BSTAR><MEAN_MOTION_DOT>.4436E-4</MEAN_MOTION_DOT><MEAN_MOTION_DDOT>0</MEAN_MOTION_DDOT></tleParameters></data></segment></body></omm>
<omm id="CCSDS_OMM_VERS" version="2.0">
<header><CREATION_DATE/><ORIGINATOR/></header><body><segment><metadata><OBJECT_NAME>KUIPER-00055</OBJECT_NAME><OBJECT_ID>2025-134R</OBJECT_ID><CENTER_NAME>EARTH</CENTER_NAME><REF_FRAME>TEME</REF_FRAME><TIME_SYSTEM>UTC</TIME_SYSTEM><MEAN_ELEMENT_THEORY>SGP4</MEAN_ELEMENT_THEORY></metadata><data><meanElements><EPOCH>2025-12-29T17:17:47.007744</EPOCH><MEAN_MOTION>15.18247562</MEAN_MOTION><ECCENTRICITY>.0002303</ECCENTRICITY><INCLINATION>51.8903</INCLINATION><RA_OF_ASC_NODE>148.8169</RA_OF_ASC_NODE><ARG_OF_PERICENTER>252.9680</ARG_OF_PERICENTER><MEAN_ANOMALY>107.1046</MEAN_ANOMALY></meanElements><tleParameters><EPHEMERIS_TYPE>0</EPHEMERIS_TYPE><CLASSIFICATION_TYPE>U</CLASSIFICATION_TYPE><NORAD_CAT_ID>64515</NORAD_CAT_ID><ELEMENT_SET_NO>999</ELEMENT_SET_NO><REV_AT_EPOCH>3018</REV_AT_EPOCH><BSTAR>.98279E-3</BSTAR><MEAN_MOTION_DOT>.20128E-3</MEAN_MOTION_DOT><MEAN_MOTION_DDOT>0</MEAN_MOTION_DDOT></tleParameters></data></segment></body></omm>
<omm id="CCSDS_OMM_VERS" version="2.0">
<header><CREATION_DATE/><ORIGINATOR/></header><body><segment><metadata><OBJECT_NAME>KUIPER-00056</OBJECT_NAME><OBJECT_ID>2025-134S</OBJECT_ID><CENTER_NAME>EARTH</CENTER_NAME><REF_FRAME>TEME</REF_FRAME><TIME_SYSTEM>UTC</TIME_SYSTEM><MEAN_ELEMENT_THEORY>SGP4</MEAN_ELEMENT_THEORY></metadata><data><meanElements><EPOCH>2025-12-29T17:54:15.358176</EPOCH><MEAN_MOTION>14.79974331</MEAN_MOTION><ECCENTRICITY>.0002695</ECCENTRICITY><INCLINATION>51.9026</INCLINATION><RA_OF_ASC_NODE>173.4170</RA_OF_ASC_NODE><ARG_OF_PERICENTER>95.6628</ARG_OF_PERICENTER><MEAN_ANOMALY>264.4642</MEAN_ANOMALY></meanElements><tleParameters><EPHEMERIS_TYPE>0</EPHEMERIS_TYPE><CLASSIFICATION_TYPE>U</CLASSIFICATION_TYPE><NORAD_CAT_ID>64516</NORAD_CAT_ID><ELEMENT_SET_NO>999</ELEMENT_SET_NO><REV_AT_EPOCH>2984</REV_AT_EPOCH><BSTAR>.63389E-3</BSTAR><MEAN_MOTION_DOT>.4619E-4</MEAN_MOTION_DOT><MEAN_MOTION_DDOT>0</MEAN_MOTION_DDOT></tleParameters></data></segment></body></omm>
<omm id="CCSDS_OMM_VERS" version="2.0">
<header><CREATION_DATE/><ORIGINATOR/></header><body><segment><metadata><OBJECT_NAME>KUIPER-00057</OBJECT_NAME><OBJECT_ID>2025-134T</OBJECT_ID><CENTER_NAME>EARTH</CENTER_NAME><REF_FRAME>TEME</REF_FRAME><TIME_SYSTEM>UTC</TIME_SYSTEM><MEAN_ELEMENT_THEORY>SGP4</MEAN_ELEMENT_THEORY></metadata><data><meanElements><EPOCH>2025-12-29T19:19:53.067648</EPOCH><MEAN_MOTION>14.79937243</MEAN_MOTION><ECCENTRICITY>.0009454</ECCENTRICITY><INCLINATION>51.8983</INCLINATION><RA_OF_ASC_NODE>180.6365</RA_OF_ASC_NODE><ARG_OF_PERICENTER>50.4550</ARG_OF_PERICENTER><MEAN_ANOMALY>309.7246</MEAN_ANOMALY></meanElements><tleParameters><EPHEMERIS_TYPE>0</EPHEMERIS_TYPE><CLASSIFICATION_TYPE>U</CLASSIFICATION_TYPE><NORAD_CAT_ID>64517</NORAD_CAT_ID><ELEMENT_SET_NO>999</ELEMENT_SET_NO><REV_AT_EPOCH>2974</REV_AT_EPOCH><BSTAR>.30808E-2</BSTAR><MEAN_MOTION_DOT>.23363E-3</MEAN_MOTION_DOT><MEAN_MOTION_DDOT>0</MEAN_MOTION_DDOT></tleParameters></data></segment></body></omm>
<omm id="CCSDS_OMM_VERS" version="2.0">
<header><CREATION_DATE/><ORIGINATOR/></header><body><segment><metadata><OBJECT_NAME>KUIPER-00058</OBJECT_NAME><OBJECT_ID>2025-134U</OBJECT_ID><CENTER_NAME>EARTH</CENTER_NAME><REF_FRAME>TEME</REF_FRAME><TIME_SYSTEM>UTC</TIME_SYSTEM><MEAN_ELEMENT_THEORY>SGP4</MEAN_ELEMENT_THEORY></metadata><data><meanElements><EPOCH>2025-12-29T17:52:41.640960</EPOCH><MEAN_MOTION>14.79922102</MEAN_MOTION><ECCENTRICITY>.0004887</ECCENTRICITY><INCLINATION>51.8982</INCLINATION><RA_OF_ASC_NODE>174.8240</RA_OF_ASC_NODE><ARG_OF_PERICENTER>96.0728</ARG_OF_PERICENTER><MEAN_ANOMALY>264.0792</MEAN_ANOMALY></meanElements><tleParameters><EPHEMERIS_TYPE>0</EPHEMERIS_TYPE><CLASSIFICATION_TYPE>U</CLASSIFICATION_TYPE><NORAD_CAT_ID>64518</NORAD_CAT_ID><ELEMENT_SET_NO>999</ELEMENT_SET_NO><REV_AT_EPOCH>2982</REV_AT_EPOCH><BSTAR>.6075E-3</BSTAR><MEAN_MOTION_DOT>.4412E-4</MEAN_MOTION_DOT><MEAN_MOTION_DDOT>0</MEAN_MOTION_DDOT></tleParameters></data></segment></body></omm>
<omm id="CCSDS_OMM_VERS" version="2.0">
<header><CREATION_DATE/><ORIGINATOR/></header><body><segment><metadata><OBJECT_NAME>KUIPER-00059</OBJECT_NAME><OBJECT_ID>2025-134V</OBJECT_ID><CENTER_NAME>EARTH</CENTER_NAME><REF_FRAME>TEME</REF_FRAME><TIME_SYSTEM>UTC</TIME_SYSTEM><MEAN_ELEMENT_THEORY>SGP4</MEAN_ELEMENT_THEORY></metadata><data><meanElements><EPOCH>2025-12-29T18:00:32.337792</EPOCH><MEAN_MOTION>14.79929859</MEAN_MOTION><ECCENTRICITY>.0002016</ECCENTRICITY><INCLINATION>51.8990</INCLINATION><RA_OF_ASC_NODE>169.8571</RA_OF_ASC_NODE><ARG_OF_PERICENTER>235.3278</ARG_OF_PERICENTER><MEAN_ANOMALY>124.7495</MEAN_ANOMALY></meanElements><tleParameters><EPHEMERIS_TYPE>0</EPHEMERIS_TYPE><CLASSIFICATION_TYPE>U</CLASSIFICATION_TYPE><NORAD_CAT_ID>64519</NORAD_CAT_ID><ELEMENT_SET_NO>999</ELEMENT_SET_NO><REV_AT_EPOCH>2989</REV_AT_EPOCH><BSTAR>.64135E-3</BSTAR><MEAN_MOTION_DOT>.4671E-4</MEAN_MOTION_DOT><MEAN_MOTION_DDOT>0</MEAN_MOTION_DDOT></tleParameters></data></segment></body></omm>
<omm id="CCSDS_OMM_VERS" version="2.0">
<header><CREATION_DATE/><ORIGINATOR/></header><body><segment><metadata><OBJECT_NAME>KUIPER-00060</OBJECT_NAME><OBJECT_ID>2025-134W</OBJECT_ID><CENTER_NAME>EARTH</CENTER_NAME><REF_FRAME>TEME</REF_FRAME><TIME_SYSTEM>UTC</TIME_SYSTEM><MEAN_ELEMENT_THEORY>SGP4</MEAN_ELEMENT_THEORY></metadata><data><meanElements><EPOCH>2025-12-29T17:58:09.211008</EPOCH><MEAN_MOTION>14.79918527</MEAN_MOTION><ECCENTRICITY>.0002528</ECCENTRICITY><INCLINATION>51.9005</INCLINATION><RA_OF_ASC_NODE>170.9047</RA_OF_ASC_NODE><ARG_OF_PERICENTER>132.0935</ARG_OF_PERICENTER><MEAN_ANOMALY>228.0243</MEAN_ANOMALY></meanElements><tleParameters><EPHEMERIS_TYPE>0</EPHEMERIS_TYPE><CLASSIFICATION_TYPE>U</CLASSIFICATION_TYPE><NORAD_CAT_ID>64520</NORAD_CAT_ID><ELEMENT_SET_NO>999</ELEMENT_SET_NO><REV_AT_EPOCH>2986</REV_AT_EPOCH><BSTAR>.62439E-3</BSTAR><MEAN_MOTION_DOT>.454E-4</MEAN_MOTION_DOT><MEAN_MOTION_DDOT>0</MEAN_MOTION_DDOT></tleParameters></data></segment></body></omm>

</ndm>
